NORAD_CAT_ID,OBJECT_NAME,OBJECT_TYPE,EPOCH,MEAN_MOTION,ECCENTRICITY,INCLINATION,RA_OF_ASC_NODE,ARG_OF_PERICENTER,MEAN_ANOMALY,BSTAR,MEAN_MOTION_DOT,MEAN_MOTION_DDOT,TLE_LINE0,TLE_LINE1,TLE_LINE2,SEMIMAJOR_AXIS,PERIOD,APOGEE,PERIGEE,DECAYED
52264.0,STARLINK-3795,PAYLOAD,2024-02-24 19:58:25,15.0882926,0.0001719,53.2171,208.4193,116.0394,244.0775,0.00016749,2.378e-05,0.0,0 STARLINK-3795,1 52264U 22041D   24055.83224124  .00002378  00000-0  16749-3 0  9990,2 52264  53.2171 208.4193 0001719 116.0394 244.0775 15.08829260103272,6917.913,95.438,540.967,538.589,0.0
52264.0,STARLINK-3795,PAYLOAD,2024-02-25 13:27:39,15.08842539,0.000145,53.2166,205.1516,96.2882,263.8275,5.5496e-05,5.95e-06,0.0,0 STARLINK-3795,1 52264U 22041D   24056.56087777  .00000595  00000-0  55496-4 0  9994,2 52264  53.2166 205.1516 0001450  96.2882 263.8275 15.08842539102178,6917.873,95.437,540.741,538.735,0.0
52264.0,STARLINK-3795,PAYLOAD,2024-02-25 16:38:25,15.08847284,0.00014,53.2166,204.5571,92.8922,267.223,9.6238e-05,1.244e-05,0.0,0 STARLINK-3795,1 52264U 22041D   24056.69335355  .00001244  00000-0  96238-4 0  9997,2 52264  53.2166 204.5571 0001400  92.8922 267.2230 15.08847284103402,6917.858,95.437,540.692,538.755,0.0
52264.0,STARLINK-3795,PAYLOAD,2024-02-26 02:10:45,15.08840543,0.0001203,53.2166,202.7738,89.2118,270.9012,-2.3162e-07,-2.92e-06,0.0,0 STARLINK-3795,1 52264U 22041D   24057.09080069 -.00000292  00000-0 -23162-6 0  9993,2 52264  53.2166 202.7738 0001203  89.2118 270.9012 15.08840543103461,6917.879,95.438,540.576,538.912,0.0
52264.0,STARLINK-3795,PAYLOAD,2024-02-26 14:53:51,15.08827992,0.0001773,53.2175,200.3954,100.6676,259.4516,-5.0104e-05,-1.085e-05,0.0,0 STARLINK-3795,1 52264U 22041D   24057.62073488 -.00001085  00000-0 -50104-4 0  9994,2 52264  53.2175 200.3954 0001773 100.6676 259.4516 15.08827992102333,6917.917,95.438,541.009,538.556,0.0
52264.0,STARLINK-3795,PAYLOAD,2024-02-26 16:29:14,15.08835145,0.0001523,53.2189,200.102,69.4839,290.6317,-0.00012076,-2.209e-05,0.0,0 STARLINK-3795,1 52264U 22041D   24057.68697432 -.00002209  00000-0 -12076-3 0  9995,2 52264  53.2189 200.1020 0001523  69.4839 290.6317 15.08835145103556,6917.895,95.438,540.814,538.707,0.0
52264.0,STARLINK-3795,PAYLOAD,2024-02-27 09:58:28,15.08840856,0.0001614,53.2183,196.8292,105.2231,254.894,9.1213e-06,-1.43e-06,0.0,0 STARLINK-3795,1 52264U 22041D   24058.41560847 -.00000143  00000-0  91213-5 0  9992,2 52264  53.2183 196.8292 0001614 105.2231 254.8940 15.08840856103669,6917.878,95.438,540.859,538.626,0.0
52264.0,STARLINK-3795,PAYLOAD,2024-02-27 14:44:37,15.08842977,0.0001728,53.2189,195.9383,109.9348,250.183,3.1307e-05,2.1e-06,0.0,0 STARLINK-3795,1 52264U 22041D   24058.61432637  .00000210  00000-0  31307-4 0  9990,2 52264  53.2189 195.9383 0001728 109.9348 250.1830 15.08842977102484,6917.871,95.437,540.932,538.541,0.0
52264.0,STARLINK-3795,PAYLOAD,2024-02-27 16:20:00,15.0884433,0.0001599,53.2181,195.641,107.9094,252.2073,4.7461e-05,4.67e-06,0.0,0 STARLINK-3795,1 52264U 22041D   24058.68056504  .00000467  00000-0  47461-4 0  9994,2 52264  53.2181 195.6410 0001599 107.9094 252.2073 15.08844330102494,6917.867,95.437,540.838,538.626,0.0
52264.0,STARLINK-3795,PAYLOAD,2024-02-28 14:35:25,15.08835742,0.0001463,53.2172,191.4778,106.8108,253.3045,7.6508e-05,9.3e-06,0.0,0 STARLINK-3795,1 52264U 22041D   24059.60793313  .00000930  00000-0  76508-4 0  9992,2 52264  53.2172 191.4778 0001463 106.8108 253.3045 15.08835742102633,6917.893,95.438,540.77,538.746,0.0
52264.0,STARLINK-3795,PAYLOAD,2024-02-28 17:46:11,15.08840087,0.0001527,53.2178,190.8834,109.5074,250.6083,0.00011426,1.531e-05,0.0,0 STARLINK-3795,1 52264U 22041D   24059.74040949  .00001531  00000-0  11426-3 0  9992,2 52264  53.2178 190.8834 0001527 109.5074 250.6083 15.08840087103864,6917.88,95.438,540.801,538.689,0.0
52264.0,STARLINK-3795,PAYLOAD,2024-02-29 14:26:12,15.08837866,0.0001595,53.2185,187.0161,103.2755,256.8415,-4.1518e-06,-3.54e-06,0.0,0 STARLINK-3795,1 52264U 22041D   24060.60153613 -.00000354  00000-0 -41518-5 0  9993,2 52264  53.2185 187.0161 0001595 103.2755 256.8415 15.08837866102783,6917.887,95.438,540.855,538.649,0.0
52264.0,STARLINK-3795,PAYLOAD,2024-02-29 16:01:35,15.0884001,0.0001356,53.2173,186.7196,88.96,271.1547,2.0208e-05,3.4e-07,0.0,0 STARLINK-3795,1 52264U 22041D   24060.66777443  .00000034  00000-0  20208-4 0  9997,2 52264  53.2173 186.7196 0001356  88.9600 271.1547 15.08840010104005,6917.88,95.438,540.683,538.807,0.0
52264.0,STARLINK-3795,PAYLOAD,2024-03-01 14:16:58,15.08847842,0.0001324,53.2172,182.5561,94.0787,266.0356,0.00013516,1.864e-05,0.0,0 STARLINK-3795,1 52264U 22041D   24061.59512444  .00001864  00000-0  13516-3 0  9993,2 52264  53.2172 182.5561 0001324  94.0787 266.0356 15.08847842102934,6917.856,95.437,540.637,538.805,0.0
52264.0,STARLINK-3795,PAYLOAD,2024-03-02 10:56:59,15.08843249,0.0001463,53.2175,178.691,89.2888,270.8271,9.1935e-05,1.176e-05,0.0,0 STARLINK-3795,1 52264U 22041D   24062.45624628  .00001176  00000-0  91935-4 0  9995,2 52264  53.2175 178.6910 0001463  89.2888 270.8271 15.08843249104278,6917.87,95.437,540.748,538.723,0.0
52264.0,STARLINK-3795,PAYLOAD,2024-03-02 14:07:45,15.0884492,0.0001422,53.2173,178.0959,88.8254,271.2901,6.7527e-05,7.87e-06,0.0,0 STARLINK-3795,1 52264U 22041D   24062.58872546  .00000787  00000-0  67527-4 0  9990,2 52264  53.2173 178.0959 0001422  88.8254 271.2901 15.08844920103080,6917.865,95.437,540.714,538.747,0.0
52264.0,STARLINK-3795,PAYLOAD,2024-03-03 12:23:10,15.08839406,0.0001602,53.2179,173.9331,96.5833,263.5342,-6.4553e-05,-1.315e-05,0.0,0 STARLINK-3795,1 52264U 22041D   24063.51609155 -.00001315  00000-0 -64553-4 0  9994,2 52264  53.2179 173.9331 0001602  96.5833 263.5342 15.08839406104439,6917.882,95.438,540.855,538.639,0.0
52264.0,STARLINK-3795,PAYLOAD,2024-03-03 13:58:33,15.08839337,0.0001602,53.218,173.6358,96.4308,263.6867,-6.6031e-05,-1.339e-05,0.0,0 STARLINK-3795,1 52264U 22041D   24063.58233141 -.00001339  00000-0 -66031-4 0  9998,2 52264  53.2180 173.6358 0001602  96.4308 263.6867 15.08839337103236,6917.882,95.438,540.856,538.639,0.0
52264.0,STARLINK-3795,PAYLOAD,2024-03-04 12:13:56,15.0885081,0.0001314,53.2169,169.469,76.5225,283.5914,6.6632e-05,7.73e-06,0.0,0 STARLINK-3795,1 52264U 22041D   24064.50967733  .00000773  00000-0  66632-4 0  9998,2 52264  53.2169 169.4690 0001314  76.5225 283.5914 15.08850810104584,6917.847,95.437,540.621,538.803,0.0
52264.0,STARLINK-3795,PAYLOAD,2024-03-04 13:49:19,15.08852997,0.0001291,53.2168,169.1729,86.4635,273.6505,7.4248e-05,8.94e-06,0.0,0 STARLINK-3795,1 52264U 22041D   24064.57591506  .00000894  00000-0  74248-4 0  9992,2 52264  53.2168 169.1729 0001291  86.4635 273.6505 15.08852997103383,6917.841,95.437,540.599,538.813,0.0
52264.0,STARLINK-3795,PAYLOAD,2024-03-05 12:04:45,15.08814486,0.0001397,53.218,165.0099,107.9207,252.1938,-0.00015402,-2.737e-05,0.0,0 STARLINK-3795,1 52264U 22041D   24065.50330707 -.00002737  00000-0 -15402-3 0  9996,2 52264  53.2180 165.0099 0001397 107.9207 252.1938 15.08814486103522,6917.958,95.439,540.79,538.857,0.0
52264.0,STARLINK-3795,PAYLOAD,2024-03-05 13:40:08,15.08814864,9.88e-05,53.2185,164.7142,86.6091,273.5014,-0.0001352,-2.437e-05,0.0,0 STARLINK-3795,1 52264U 22041D   24065.56954823 -.00002437  00000-0 -13520-3 0  9999,2 52264  53.2185 164.7142 0000988  86.6091 273.5014 15.08814864104748,6917.957,95.439,540.506,539.139,0.0
52264.0,STARLINK-3795,PAYLOAD,2024-03-06 11:55:32,15.08829687,0.0001097,53.216,160.5492,83.9787,276.133,-6.4859e-05,-1.32e-05,0.0,0 STARLINK-3795,1 52264U 22041D   24066.49690553 -.00001320  00000-0 -64859-4 0  9991,2 52264  53.2160 160.5492 0001097  83.9787 276.1330 15.08829687104881,6917.912,95.438,540.536,539.018,0.0
52264.0,STARLINK-3795,PAYLOAD,2024-03-06 13:30:55,15.08832088,0.000117,53.2163,160.2523,94.326,265.7865,-4.3439e-05,-9.79e-06,0.0,0 STARLINK-3795,1 52264U 22041D   24066.56314396 -.00000979  00000-0 -43439-4 0  9997,2 52264  53.2163 160.2523 0001170  94.3260 265.7865 15.08832088103683,6917.905,95.438,540.579,538.96,0.0
52264.0,STARLINK-3795,PAYLOAD,2024-03-07 13:21:43,15.08832293,0.0001184,53.2153,155.7923,112.2573,247.8545,0.00058585,9.046e-05,0.0,0 STARLINK-3795,1 52264U 22041D   24067.55675012  .00009046  00000-0  58585-3 0  9991,2 52264  53.2153 155.7923 0001184 112.2573 247.8545 15.08832293103838,6917.904,95.438,540.588,538.95,0.0
52264.0,STARLINK-3795,PAYLOAD,2024-03-08 11:37:06,15.08848818,0.0001418,53.2166,151.6295,82.8494,277.266,0.00031469,4.725e-05,0.0,0 STARLINK-3795,1 52264U 22041D   24068.48410459  .00004725  00000-0  31469-3 0  9997,2 52264  53.2166 151.6295 0001418  82.8494 277.2660 15.08848818103973,6917.853,95.437,540.699,538.737,0.0
52264.0,STARLINK-3795,PAYLOAD,2024-03-08 14:47:52,15.0885032,0.0001431,53.2166,151.0348,82.5513,277.5642,0.00031718,4.765e-05,0.0,0 STARLINK-3795,1 52264U 22041D   24068.61658366  .00004765  00000-0  31718-3 0  9994,2 52264  53.2166 151.0348 0001431  82.5513 277.5642 15.08850320105202,6917.849,95.437,540.704,538.724,0.0
52264.0,STARLINK-3795,PAYLOAD,2024-03-09 11:27:53,15.08842898,0.0001606,53.2166,147.1697,82.7228,277.3947,6.048e-05,6.75e-06,0.0,0 STARLINK-3795,1 52264U 22041D   24069.47770478  .00000675  00000-0  60480-4 0  9993,2 52264  53.2166 147.1697 0001606  82.7228 277.3947 15.08842898105335,6917.872,95.437,540.848,538.626,0.0
52264.0,STARLINK-3795,PAYLOAD,2024-03-10 14:29:26,15.08841861,0.0001675,53.2179,142.1114,100.8687,259.2494,6.2305e-05,7.04e-06,0.0,0 STARLINK-3795,1 52264U 22041D   24070.60378339  .00000704  00000-0  62305-4 0  9991,2 52264  53.2179 142.1114 0001675 100.8687 259.2494 15.08841861104294,6917.875,95.437,540.898,538.581,0.0
52264.0,STARLINK-3795,PAYLOAD,2024-03-11 14:20:13,15.08842437,0.0001482,53.2168,137.6523,105.0188,255.0968,0.00011409,1.528e-05,0.0,0 STARLINK-3795,1 52264U 22041D   24071.59738164  .00001528  00000-0  11409-3 0  9999,2 52264  53.2168 137.6523 0001482 105.0188 255.0968 15.08842437104441,6917.873,95.437,540.763,538.713,0.0
